LYNK TOWER 4            
1 55034U 23001AB  26068.67743801  .00009160  00000+0  30014-3 0  9997
2 55034  97.3324 128.5940 0010321 112.3386 247.8950 15.31819885176588
STARLINK-34615          
1 66321U 25253C   26068.41897537  .00028856  00000+0  10534-2 0  9994
2 66321  42.9927 213.9600 0001516 149.7735 210.3204 15.27600643 20203
